NORAD_CAT_ID,OBJECT_NAME,OBJECT_TYPE,EPOCH,MEAN_MOTION,ECCENTRICITY,INCLINATION,RA_OF_ASC_NODE,ARG_OF_PERICENTER,MEAN_ANOMALY,BSTAR,MEAN_MOTION_DOT,MEAN_MOTION_DDOT,TLE_LINE0,TLE_LINE1,TLE_LINE2,SEMIMAJOR_AXIS,PERIOD,APOGEE,PERIGEE,DECAYED
52090.0,STARLINK-3712,PAYLOAD,2022-04-11 14:00:01,15.59939257,0.0001137,53.2173,28.7678,75.8587,50.8005,-0.0094579,-0.00711936,0.0,0 STARLINK-3712,1 52090U 22029C   22101.58334491 -.00711936  00000-0 -94579-2 0  9999,2 52090  53.2173  28.7678 0001137  75.8587  50.8005 15.59939257  3702,6765.97,92.311,388.604,387.065,0.0
52090.0,STARLINK-3712,PAYLOAD,2022-04-11 20:00:01,15.59557699,0.0001178,53.2175,27.5548,67.4597,23.7704,-0.0096178,-0.00713322,0.0,0 STARLINK-3712,1 52090U 22029C   22101.83334491 -.00713322  00000-0 -96178-2 0  9995,2 52090  53.2175  27.5548 0001178  67.4597  23.7704 15.59557699  4971,6767.073,92.334,389.735,388.141,0.0
52090.0,STARLINK-3712,PAYLOAD,2022-04-11 22:00:00,15.59430324,0.0001313,53.2175,27.1513,69.4907,129.8529,-0.0096704,-0.0071372,0.0,0 STARLINK-3712,1 52090U 22029C   22101.91667824 -.00713720  00000-0 -96704-2 0  9990,2 52090  53.2175  27.1513 0001313  69.4907 129.8529 15.59430324  3693,6767.441999999999,92.341,390.195,388.418,0.0
52090.0,STARLINK-3712,PAYLOAD,2022-04-12 14:00:01,15.58409493,0.0001043,53.2175,23.9207,91.2351,251.6405,-0.010036,-0.00712463,0.0,0 STARLINK-3712,1 52090U 22029C   22102.58334491 -.00712463  00000-0 -10036-1 0  9991,2 52090  53.2175  23.9207 0001043  91.2351 251.6405 15.58409493  3704,6770.397,92.402,392.968,391.556,0.0
52090.0,STARLINK-3712,PAYLOAD,2022-04-12 20:00:01,15.58029119,0.0001144,53.2176,22.7107,84.2994,221.7674,-0.010217,-0.00714733,0.0,0 STARLINK-3712,1 52090U 22029C   22102.83334491 -.00714733  00000-0 -10217-1 0  9992,2 52090  53.2176  22.7107 0001144  84.2994 221.7674 15.58029119  5125,6771.499,92.424,394.138,392.589,0.0
52090.0,STARLINK-3712,PAYLOAD,2022-04-12 22:00:00,15.57902129,0.0001085,53.2176,22.3083,73.0218,340.6988,-0.010293,-0.00716429,0.0,0 STARLINK-3712,1 52090U 22029C   22102.91667824 -.00716429  00000-0 -10293-1 0  9998,2 52090  53.2176  22.3083 0001085  73.0218 340.6988 15.57902129  3692,6771.8669999999975,92.432,394.466,392.997,0.0
52090.0,STARLINK-3712,PAYLOAD,2022-04-13 14:00:03,15.56879238,0.000122,53.2174,19.0844,78.6711,115.0356,-0.010607,-0.00710882,0.0,0 STARLINK-3712,1 52090U 22029C   22103.58336806 -.00710882  00000-0 -10607-1 0  9991,2 52090  53.2174  19.0844 0001220  78.6711 115.0356 15.56879238  3706,6774.831999999999,92.493,397.524,395.871,0.0
52090.0,STARLINK-3712,PAYLOAD,2022-04-13 20:00:01,15.56497628,0.000129,53.2177,17.8777,68.3279,87.1269,-0.010785,-0.00712418,0.0,0 STARLINK-3712,1 52090U 22029C   22103.83335648 -.00712418  00000-0 -10785-1 0  9996,2 52090  53.2177  17.8777 0001290  68.3279  87.1269 15.56497628  5288,6775.94,92.515,398.679,396.931,0.0
52090.0,STARLINK-3712,PAYLOAD,2022-04-13 22:00:00,15.56370384,0.0001255,53.2177,17.4761,73.425,189.159,-0.010845,-0.00712925,0.0,0 STARLINK-3712,1 52090U 22029C   22103.91667824 -.00712925  00000-0 -10845-1 0  9999,2 52090  53.2177  17.4761 0001255  73.4250 189.1590 15.56370384  3708,6776.309,92.523,399.024,397.324,0.0
52090.0,STARLINK-3712,PAYLOAD,2022-04-14 14:00:01,15.55349079,0.0001025,53.2173,14.2598,76.348,322.4152,-0.011231,-0.00710881,0.0,0 STARLINK-3712,1 52090U 22029C   22104.58334491 -.00710881  00000-0 -11231-1 0  9993,2 52090  53.2173  14.2598 0001025  76.3480 322.4152 15.55349079  3701,6779.275,92.584,401.835,400.445,0.0
52090.0,STARLINK-3712,PAYLOAD,2022-04-14 20:00:01,15.54970033,0.0001093,53.2176,13.0558,72.3631,286.8331,-0.011477,-0.00715877,0.0,0 STARLINK-3712,1 52090U 22029C   22104.83334491 -.00715877  00000-0 -11477-1 0  9993,2 52090  53.2176  13.0558 0001093  72.3631 286.8331 15.54970033  5440,6780.377,92.606,402.983,401.501,0.0
52090.0,STARLINK-3712,PAYLOAD,2022-04-14 22:00:00,15.54840708,0.0001227,53.2173,12.6551,64.10600000000001,41.8257,-0.011487,-0.00713339,0.0,0 STARLINK-3712,1 52090U 22029C   22104.91667824 -.00713339  00000-0 -11487-1 0  9993,2 52090  53.2173  12.6551 0001227  64.1060  41.8257 15.54840708  3707,6780.753000000002,92.614,403.45,401.786,0.0
52090.0,STARLINK-3712,PAYLOAD,2022-04-15 03:43:05,15.55158835,0.000203,53.2182,11.5173,42.7889,317.3281,-0.0055306,-0.00363329,0.0,0 STARLINK-3712,1 52090U 22029C   22105.15492608 -.00363329  00000-0 -55306-2 0  9995,2 52090  53.2182  11.5173 0002030  42.7889 317.3281 15.55158835  5499,6779.828,92.595,403.069,400.317,0.0
52090.0,STARLINK-3712,PAYLOAD,2022-04-15 12:00:00,15.53947145,0.0001199,53.2174,9.8471,70.7321,61.2729,-0.011828,-0.00710945,0.0,0 STARLINK-3712,1 52090U 22029C   22105.50001157 -.00710945  00000-0 -11828-1 0  9999,2 52090  53.2174   9.8471 0001199  70.7321  61.2729 15.53947145  5544,6783.352,92.667,406.03,404.404,0.0
52090.0,STARLINK-3712,PAYLOAD,2022-04-15 14:00:01,15.53819335,0.0001233,53.2173,9.4458,79.3406,159.0934,-0.011872,-0.00710315,0.0,0 STARLINK-3712,1 52090U 22029C   22105.58334491 -.00710315  00000-0 -11872-1 0  9997,2 52090  53.2173   9.4458 0001233  79.3406 159.0934 15.53819335  3701,6783.724,92.675,406.425,404.752,0.0
52090.0,STARLINK-3712,PAYLOAD,2022-04-15 22:00:00,15.53310517,0.0001199,53.2175,7.845,76.5261,227.2381,-0.012131,-0.00712238,0.0,0 STARLINK-3712,1 52090U 22029C   22105.91667824 -.00712238  00000-0 -12131-1 0  9998,2 52090  53.2175   7.8450 0001199  76.5261 227.2381 15.53310517  3685,6785.205,92.705,407.884,406.257,0.0
52090.0,STARLINK-3712,PAYLOAD,2022-04-16 12:00:02,15.52418614,0.0001062,53.2176,5.0433,77.6014,249.0833,-0.012546,-0.00712976,0.0,0 STARLINK-3712,1 52090U 22029C   22106.50002315 -.00712976  00000-0 -12546-1 0  9991,2 52090  53.2176   5.0433 0001062  77.6014 249.0833 15.52418614  5697,6787.804,92.758,410.39,408.948,0.0
52090.0,STARLINK-3712,PAYLOAD,2022-04-16 14:00:01,15.52290084,0.0001103,53.2174,4.6431,71.2591,1.3308,-0.012584,-0.00711914,0.0,0 STARLINK-3712,1 52090U 22029C   22106.58334491 -.00711914  00000-0 -12584-1 0  9995,2 52090  53.2174   4.6431 0001103  71.2591   1.3308 15.52290084  3709,6788.178000000001,92.766,410.792,409.295,0.0
52090.0,STARLINK-3712,PAYLOAD,2022-04-16 22:00:01,15.51779824,0.0001322,53.2175,3.0461,61.7505,74.3964,-0.012805,-0.00711265,0.0,0 STARLINK-3712,1 52090U 22029C   22106.91668981 -.00711265  00000-0 -12805-1 0  9991,2 52090  53.2175   3.0461 0001322  61.7505  74.3964 15.51779824  3710,6789.666,92.797,412.429,410.634,0.0
52090.0,STARLINK-3712,PAYLOAD,2022-04-17 12:00:00,15.50886727,0.0001219,53.2174,0.2506,74.8779,80.8432,-0.013184,-0.0071836,0.0,0 STARLINK-3712,1 52090U 22029C   22107.50001157 -.00718360  00000-0 -13184-1 0  9997,2 52090  53.2174   0.2506 0001219  74.8779  80.8432 15.50886727  5850,6792.273,92.85,414.966,413.31,0.0
52090.0,STARLINK-3712,PAYLOAD,2022-04-17 14:00:01,15.50760352,0.0001216,53.2173,359.8513,83.9196,177.31099999999995,-0.013298,-0.00721085,0.0,0 STARLINK-3712,1 52090U 22029C   22107.58334491 -.00721085  00000-0 -13298-1 0  9999,2 52090  53.2173 359.8513 0001216  83.9196 177.3110 15.50760352  3703,6792.642,92.858,415.333,413.681,0.0
52090.0,STARLINK-3712,PAYLOAD,2022-04-17 22:00:00,15.50122006,0.0001354,53.2175,358.2583,67.0869,255.8195,-0.0061013,-0.00335138,0.0,0 STARLINK-3712,1 52090U 22029C   22107.91667824 -.00335138  00000-0 -61013-2 0  9994,2 52090  53.2175 358.2583 0001354  67.0869 255.8195 15.50122006  3701,6794.507,92.896,417.292,415.452,0.0
52090.0,STARLINK-3712,PAYLOAD,2022-04-18 04:00:00,15.49883638,0.0001200999999999,53.2173,357.0638,95.7884,182.9371,7.6431e-05,3.888e-05,0.0,0 STARLINK-3712,1 52090U 22029C   22108.16667824  .00003888  00000-0  76431-4 0  9996,2 52090  53.2173 357.0638 0001201  95.7884 182.9371 15.49883638  5951,6795.203,92.91,417.884,416.252,0.0
52090.0,STARLINK-3712,PAYLOAD,2022-04-18 12:00:00,15.49830438,0.0001404,53.2172,355.4744,87.6234,252.0266,0.00078427,0.00044226,0.0,0 STARLINK-3712,1 52090U 22029C   22108.50001157  .00044226  00000-0  78427-3 0  9992,2 52090  53.2172 355.4744 0001404  87.6234 252.0266 15.49830438  6003,6795.359,92.913,418.17800000000005,416.27,0.0
52090.0,STARLINK-3712,PAYLOAD,2022-04-18 14:00:01,15.49828149,0.0001406,53.2171,355.0751,88.9411,355.9265,0.0010895,0.00061748,0.0,0 STARLINK-3712,1 52090U 22029C   22108.58334491  .00061748  00000-0  10895-2 0  9992,2 52090  53.2171 355.0751 0001406  88.9411 355.9265 15.49828149  3701,6795.365,92.914,418.186,416.275,0.0
52090.0,STARLINK-3712,PAYLOAD,2022-04-18 22:00:00,15.49874639,0.0001466,53.2171,353.4865,80.9488,64.7898,-0.00016018,-9.528e-05,0.0,0 STARLINK-3712,1 52090U 22029C   22108.91667824 -.00009528  00000-0 -16018-3 0  9992,2 52090  53.2171 353.4865 0001466  80.9488  64.7898 15.49874639  3691,6795.229,92.911,418.091,416.098,0.0
52090.0,STARLINK-3712,PAYLOAD,2022-04-19 04:00:00,15.49858746,0.0001447,53.217,352.2923,75.8328,25.5799,0.00089038,0.00050361,0.0,0 STARLINK-3712,1 52090U 22029C   22109.16667824  .00050361  00000-0  89038-3 0  9991,2 52090  53.2170 352.2923 0001447  75.8328  25.5799 15.49858746  6113,6795.276,92.912,418.124,416.158,0.0
52090.0,STARLINK-3712,PAYLOAD,2022-04-19 14:00:01,15.49868695,0.000143,53.2172,350.2986,86.4099,181.1405,0.0010204,0.00057857,0.0,0 STARLINK-3712,1 52090U 22029C   22109.58334491  .00057857  00000-0  10204-2 0  9993,2 52090  53.2172 350.2986 0001430  86.4099 181.1405 15.49868695  3694,6795.246999999999,92.911,418.084,416.14,0.0
52090.0,STARLINK-3712,PAYLOAD,2022-04-19 20:00:01,15.49915102,0.0001481,53.2175,349.105,82.2959,140.9393,-0.00021486,-0.00012639,0.0,0 STARLINK-3712,1 52090U 22029C   22109.83334491 -.00012639  00000-0 -21486-3 0  9997,2 52090  53.2175 349.1050 0001481  82.2959 140.9393 15.49915102  6217,6795.111,92.908,417.983,415.97,0.0
